STARLINK-33871          
1 63994U 25101A   26068.18039046  .00040629  00000+0  14774-2 0  9998
2 63994  43.0021   1.1587 0001047 262.5592  97.5140 15.27590821 46903
REAL                    
1 64875U 25154G   26068.72233414  .00022901  00000+0  82904-3 0  9994
2 64875  97.4133 137.2581 0001853 118.5876 241.5550 15.28408058 34830
